start=new Date('2023-05-31T00:00:00.000Z').valueOf();
sats=[{"REF_FRAME":"TEME","PERIAPSIS":"546.494","SEMIMAJOR_AXIS":"6925.415","MEAN_ANOMALY":"273.4658","ELEMENT_SET_NO":"999","TLE_LINE2":"2 47877  53.0546 145.0736 0001134  86.6461 273.4658 15.06378422123306","RA_OF_ASC_NODE":"145.0736","GP_ID":"232818554","DECAY_DATE":null,"PERIOD":"95.594","ECCENTRICITY":"0.00011340","RCS_SIZE":"LARGE","LAUNCH_DATE":"2021-03-14","BSTAR":"0.00021457000000","CLASSIFICATION_TYPE":"U","SITE":"AFETR","MEAN_ELEMENT_THEORY":"SGP4","INCLINATION":"53.0546","MEAN_MOTION":"15.06378422","OBJECT_TYPE":"PAYLOAD","TIME_SYSTEM":"UTC","ARG_OF_PERICENTER":"86.6461","REV_AT_EPOCH":"12330","EPHEMERIS_TYPE":"0","APOAPSIS":"548.065","NORAD_CAT_ID":"47877","TLE_LINE1":"1 47877U 21021T   23150.36902727  .00002914  00000-0  21457-3 0  9994","OBJECT_NAME":"STARLINK-2333","EPOCH":"2023-05-30T08:51:23.956128","MEAN_MOTION_DOT":"0.00002914","CENTER_NAME":"EARTH","OBJECT_ID":"2021-021T","MEAN_MOTION_DDOT":"0.0000000000000","COUNTRY_CODE":"US","FILE":"3920920"},{"PERIOD":"95.593","DECAY_DATE":null,"TLE_LINE2":"2 47878  53.0540 145.6229 0001062  86.7183 273.3928 15.06391513123086","RA_OF_ASC_NODE":"145.6229","GP_ID":"232819805","ELEMENT_SET_NO":"999","PERIAPSIS":"546.504","REF_FRAME":"TEME","SEMIMAJOR_AXIS":"6925.375","MEAN_ANOMALY":"273.3928","MEAN_ELEMENT_THEORY":"SGP4","BSTAR":"0.00003456500000","CLASSIFICATION_TYPE":"U","SITE":"AFETR","RCS_SIZE":"LARGE","LAUNCH_DATE":"2021-03-14","ECCENTRICITY":"0.00010620","APOAPSIS":"547.975","ARG_OF_PERICENTER":"86.7183","REV_AT_EPOCH":"12308","EPHEMERIS_TYPE":"0","TIME_SYSTEM":"UTC","INCLINATION":"53.0540","MEAN_MOTION":"15.06391513","OBJECT_TYPE":"PAYLOAD","OBJECT_ID":"2021-021U","MEAN_MOTION_DDOT":"0.0000000000000","COUNTRY_CODE":"US","FILE":"3920920","MEAN_MOTION_DOT":"0.00000233","CENTER_NAME":"EARTH","OBJECT_NAME":"STARLINK-2335","TLE_LINE1":"1 47878U 21021U   23150.24738646  .00000233  00000-0  34565-4 0  9996","EPOCH":"2023-05-30T05:56:14.190144","NORAD_CAT_ID":"47878"},{"GP_ID":"232795105","TLE_LINE2":"2 47879  53.0535 159.7454 0001034  76.9813 283.1292 15.06395541122635","RA_OF_ASC_NODE":"159.7454","PERIOD":"95.592","DECAY_DATE":null,"SEMIMAJOR_AXIS":"6925.362","MEAN_ANOMALY":"283.1292","REF_FRAME":"TEME","PERIAPSIS":"546.511","ELEMENT_SET_NO":"999","CLASSIFICATION_TYPE":"U","SITE":"AFETR","BSTAR":"0.00011325000000","MEAN_ELEMENT_THEORY":"SGP4","ECCENTRICITY":"0.00010340","RCS_SIZE":"LARGE","LAUNCH_DATE":"2021-03-14","EPHEMERIS_TYPE":"0","REV_AT_EPOCH":"12263","ARG_OF_PERICENTER":"76.9813","APOAPSIS":"547.943","OBJECT_TYPE":"PAYLOAD","MEAN_MOTION":"15.06395541","INCLINATION":"53.0535","TIME_SYSTEM":"UTC","CENTER_NAME":"EARTH","MEAN_MOTION_DOT":"0.00001406","COUNTRY_CODE":"US","FILE":"3920822","OBJECT_ID":"2021-021V","MEAN_MOTION_DDOT":"0.0000000000000","NORAD_CAT_ID":"47879","EPOCH":"2023-05-30T10:38:12.694272","OBJECT_NAME":"STARLINK-2336","TLE_LINE1":"1 47879U 21021V   23150.44320248  .00001406  00000-0  11325-3 0  9995"},{"OBJECT_NAME":"STARLINK-2337","TLE_LINE1":"1 47880U 21021W   23150.74774626  .00000803  00000-0  72757-4 0  9990","EPOCH":"2023-05-30T17:56:45.276864","NORAD_CAT_ID":"47880","MEAN_MOTION_DDOT":"0.0000000000000","OBJECT_ID":"2021-021W","FILE":"3921192","COUNTRY_CODE":"US","MEAN_MOTION_DOT":"0.00000803","CENTER_NAME":"EARTH","TIME_SYSTEM":"UTC","INCLINATION":"53.0535","OBJECT_TYPE":"PAYLOAD","MEAN_MOTION":"15.06399229","APOAPSIS":"547.961","ARG_OF_PERICENTER":"89.0622","REV_AT_EPOCH":"12322","EPHEMERIS_TYPE":"0","LAUNCH_DATE":"2021-03-14","RCS_SIZE":"LARGE","ECCENTRICITY":"0.00010760","MEAN_ELEMENT_THEORY":"SGP4","BSTAR":"0.00007275700000","SITE":"AFETR","CLASSIFICATION_TYPE":"U","ELEMENT_SET_NO":"999","REF_FRAME":"TEME","PERIAPSIS":"546.471","MEAN_ANOMALY":"271.0491","SEMIMAJOR_AXIS":"6925.351","PERIOD":"95.592","DECAY_DATE":null,"RA_OF_ASC_NODE":"153.3768","TLE_LINE2":"2 47880  53.0535 153.3768 0001076  89.0622 271.0491 15.06399229123224","GP_ID":"232851982"},{"BSTAR":"0.00009071900000","SITE":"AFETR","CLASSIFICATION_TYPE":"U","MEAN_ELEMENT_THEORY":"SGP4","ECCENTRICITY":"0.00009290","LAUNCH_DATE":"2021-03-14","RCS_SIZE":"LARGE","RA_OF_ASC_NODE":"155.6470","TLE_LINE2":"2 47881  53.0537 155.6470 0000929  86.6914 273.4181 15.06394275122671","GP_ID":"232827280","DECAY_DATE":null,"PERIOD":"95.593","PERIAPSIS":"546.588","REF_FRAME":"TEME","MEAN_ANOMALY":"273.4181","SEMIMAJOR_AXIS":"6925.366","ELEMENT_SET_NO":"999","MEAN_MOTION_DOT":"0.00001070","CENTER_NAME":"EARTH","MEAN_MOTION_DDOT":"0.0000000000000","OBJECT_ID":"2021-021X","FILE":"3921031","COUNTRY_CODE":"US","NORAD_CAT_ID":"47881","TLE_LINE1":"1 47881U 21021X   23150.24277699  .00001070  00000-0  90719-4 0  9999","OBJECT_NAME":"STARLINK-2339","EPOCH":"2023-05-30T05:49:35.931936","ARG_OF_PERICENTER":"86.6914","EPHEMERIS_TYPE":"0","REV_AT_EPOCH":"12267","APOAPSIS":"547.874","INCLINATION":"53.0537","MEAN_MOTION":"15.06394275","OBJECT_TYPE":"PAYLOAD","TIME_SYSTEM":"UTC"},{"INCLINATION":"53.0531","MEAN_MOTION":"15.06400658","OBJECT_TYPE":"PAYLOAD","TIME_SYSTEM":"UTC","ARG_OF_PERICENTER":"92.5993","REV_AT_EPOCH":"12347","EPHEMERIS_TYPE":"0","APOAPSIS":"548.158","NORAD_CAT_ID":"47882","TLE_LINE1":"1 47882U 21021Y   23150.35059126 -.00001117  00000-0 -56129-4 0  9996","OBJECT_NAME":"STARLINK-2340","EPOCH":"2023-05-30T08:24:51.084864","MEAN_MOTION_DOT":"-0.00001117","CENTER_NAME":"EARTH","MEAN_MOTION_DDOT":"0.0000000000000","OBJECT_ID":"2021-021Y","FILE":"3920920","COUNTRY_CODE":"US","PERIAPSIS":"546.265","REF_FRAME":"TEME","MEAN_ANOMALY":"267.5153","SEMIMAJOR_AXIS":"6925.347","ELEMENT_SET_NO":"999","RA_OF_ASC_NODE":"145.1626","TLE_LINE2":"2 47882  53.0531 145.1626 0001367  92.5993 267.5153 15.06400658123478","GP_ID":"232819306","DECAY_DATE":null,"PERIOD":"95.592","ECCENTRICITY":"0.00013670","LAUNCH_DATE":"2021-03-14","RCS_SIZE":"LARGE","BSTAR":"-0.00005612900000","SITE":"AFETR","CLASSIFICATION_TYPE":"U","MEAN_ELEMENT_THEORY":"SGP4"},{"TIME_SYSTEM":"UTC","INCLINATION":"53.0535","OBJECT_TYPE":"PAYLOAD","MEAN_MOTION":"15.06395634","APOAPSIS":"547.900","ARG_OF_PERICENTER":"85.7589","REV_AT_EPOCH":"12341","EPHEMERIS_TYPE":"0","TLE_LINE1":"1 47883U 21021Z   23150.38883143  .00000684  00000-0  64822-4 0  9999","OBJECT_NAME":"STARLINK-2342","EPOCH":"2023-05-30T09:19:55.035552","NORAD_CAT_ID":"47883","OBJECT_ID":"2021-021Z","MEAN_MOTION_DDOT":"0.0000000000000","COUNTRY_CODE":"US","FILE":"3920920","MEAN_MOTION_DOT":"0.00000684","CENTER_NAME":"EARTH","ELEMENT_SET_NO":"999","REF_FRAME":"TEME","PERIAPSIS":"546.554","SEMIMAJOR_AXIS":"6925.362","MEAN_ANOMALY":"274.3511","DECAY_DATE":null,"PERIOD":"95.592","TLE_LINE2":"2 47883  53.0535 149.9864 0000972  85.7589 274.3511 15.06395634123410","RA_OF_ASC_NODE":"149.9864","GP_ID":"232820054","RCS_SIZE":"LARGE","LAUNCH_DATE":"2021-03-14","ECCENTRICITY":"0.00009720","MEAN_ELEMENT_THEORY":"SGP4","BSTAR":"0.00006482200000","CLASSIFICATION_TYPE":"U","SITE":"AFETR"},{"INCLINATION":"53.0538","MEAN_MOTION":"15.06395482","OBJECT_TYPE":"PAYLOAD","TIME_SYSTEM":"UTC","ARG_OF_PERICENTER":"86.8431","REV_AT_EPOCH":"12315","EPHEMERIS_TYPE":"0","APOAPSIS":"548.019","NORAD_CAT_ID":"47884","TLE_LINE1":"1 47884U 21021AA  23150.30543768  .00000086  00000-0  24648-4 0  9996","OBJECT_NAME":"STARLINK-2343","EPOCH":"2023-05-30T07:19:49.815552","MEAN_MOTION_DOT":"0.00000086","CENTER_NAME":"EARTH","OBJECT_ID":"2021-021AA","MEAN_MOTION_DDOT":"0.0000000000000","COUNTRY_CODE":"US","FILE":"3920920","PERIAPSIS":"546.436","REF_FRAME":"TEME","SEMIMAJOR_AXIS":"6925.362","MEAN_ANOMALY":"273.2689","ELEMENT_SET_NO":"999","TLE_LINE2":"2 47884  53.0538 155.3640 0001143  86.8431 273.2689 15.06395482123152","RA_OF_ASC_NODE":"155.3640","GP_ID":"232818305","DECAY_DATE":null,"PERIOD":"95.592","ECCENTRICITY":"0.00011430","RCS_SIZE":"LARGE","LAUNCH_DATE":"2021-03-14","BSTAR":"0.00002464800000","CLASSIFICATION_TYPE":"U","SITE":"AFETR","MEAN_ELEMENT_THEORY":"SGP4"},{"OBJECT_TYPE":"PAYLOAD","MEAN_MOTION":"15.06395572","INCLINATION":"53.0535","TIME_SYSTEM":"UTC","REV_AT_EPOCH":"12326","EPHEMERIS_TYPE":"0","ARG_OF_PERICENTER":"93.9117","APOAPSIS":"547.904","NORAD_CAT_ID":"47885","EPOCH":"2023-05-30T10:22:16.986720","TLE_LINE1":"1 47885U 21021AB  23150.43214105  .00000577  00000-0  57627-4 0  9999","OBJECT_NAME":"STARLINK-2344","CENTER_NAME":"EARTH","MEAN_MOTION_DOT":"0.00000577","COUNTRY_CODE":"US","FILE":"3920920","OBJECT_ID":"2021-021AB","MEAN_MOTION_DDOT":"0.0000000000000","SEMIMAJOR_AXIS":"6925.362","MEAN_ANOMALY":"266.1984","PERIAPSIS":"546.550","REF_FRAME":"TEME","ELEMENT_SET_NO":"999","GP_ID":"232818555","TLE_LINE2":"2 47885  53.0535 159.7942 0000978  93.9117 266.1984 15.06395572123269","RA_OF_ASC_NODE":"159.7942","DECAY_DATE":null,"PERIOD":"95.592","ECCENTRICITY":"0.00009780","RCS_SIZE":"LARGE","LAUNCH_DATE":"2021-03-14","CLASSIFICATION_TYPE":"U","SITE":"AFETR","BSTAR":"0.00005762700000","MEAN_ELEMENT_THEORY":"SGP4"},{"NORAD_CAT_ID":"47886","EPOCH":"2023-05-30T22:23:12.654240","OBJECT_NAME":"STARLINK-2345","TLE_LINE1":"1 47886U 21021AC  23150.93278535  .00075210  00000-0  25886-2 0  9998","CENTER_NAME":"EARTH","MEAN_MOTION_DOT":"0.00075210","FILE":"3921192","COUNTRY_CODE":"US","MEAN_MOTION_DDOT":"0.0000000000000","OBJECT_ID":"2021-021AC","MEAN_MOTION":"15.29384236","OBJECT_TYPE":"PAYLOAD","INCLINATION":"53.0580","TIME_SYSTEM":"UTC","EPHEMERIS_TYPE":"0","REV_AT_EPOCH":"12352","ARG_OF_PERICENTER":"26.7457","APOAPSIS":"482.272","ECCENTRICITY":"0.00067360","LAUNCH_DATE":"2021-03-14","RCS_SIZE":"LARGE","SITE":"AFETR","CLASSIFICATION_TYPE":"U","BSTAR":"0.00258860000000","MEAN_ELEMENT_THEORY":"SGP4","MEAN_ANOMALY":"333.3888","SEMIMAJOR_AXIS":"6855.789","PERIAPSIS":"473.036","REF_FRAME":"TEME","ELEMENT_SET_NO":"999","GP_ID":"232852984","RA_OF_ASC_NODE":"133.9743","TLE_LINE2":"2 47886  53.0580 133.9743 0006736  26.7457 333.3888 15.29384236123521","DECAY_DATE":null,"PERIOD":"94.156"}];
